NORAD_CAT_ID,OBJECT_NAME,OBJECT_TYPE,EPOCH,MEAN_MOTION,ECCENTRICITY,INCLINATION,RA_OF_ASC_NODE,ARG_OF_PERICENTER,MEAN_ANOMALY,BSTAR,MEAN_MOTION_DOT,MEAN_MOTION_DDOT,TLE_LINE0,TLE_LINE1,TLE_LINE2,SEMIMAJOR_AXIS,PERIOD,APOGEE,PERIGEE,DECAYED
52119.0,STARLINK-3558,PAYLOAD,2022-08-06 22:00:00,15.08829487,0.0002288,53.216,203.3927,58.6874,66.8846,0.0018942999999999,0.0002998,0.0,0 STARLINK-3558,1 52119U 22029AH  22218.91667824  .00029980  00000-0  18943-2 0  9996,2 52119  53.2160 203.3927 0002288  58.6874  66.8846 15.08829487  1305,6917.913000000001,95.438,541.36,538.195,0.0
52119.0,STARLINK-3558,PAYLOAD,2022-08-07 02:12:55,15.08838869,0.0002275,53.2178,202.6048,56.7626,303.3584,9.9705e-05,1.299e-05,0.0,0 STARLINK-3558,1 52119U 22029AH  22219.09231110  .00001299  00000-0  99705-4 0  9991,2 52119  53.2178 202.6048 0002275  56.7626 303.3584 15.08838869 22945,6917.884,95.438,541.323,538.175,0.0
52119.0,STARLINK-3558,PAYLOAD,2022-08-07 14:00:01,15.08862532,0.000243,53.216,200.4012,54.6132,94.1494,-0.0019387,-0.00031031,0.0,0 STARLINK-3558,1 52119U 22029AH  22219.58334491 -.00031031  00000-0 -19387-2 0  9996,2 52119  53.2160 200.4012 0002430  54.6132  94.1494 15.08862532  1301,6917.812,95.436,541.3580000000002,537.995,0.0
52119.0,STARLINK-3558,PAYLOAD,2022-08-07 22:00:00,15.0884518,0.0002379999999999,53.2163,198.9036,60.1038,100.2718,0.0016896,0.00026709,0.0,0 STARLINK-3558,1 52119U 22029AH  22219.91667824  .00026709  00000-0  16896-2 0  9998,2 52119  53.2163 198.9036 0002380  60.1038 100.2718 15.08845180  1300,6917.865,95.437,541.376,538.0830000000002,0.0
52119.0,STARLINK-3558,PAYLOAD,2022-08-08 04:00:00,15.08869981,0.0002489,53.2161,197.7827,56.9136,22.1712,-0.0013714,-0.00022067,0.0,0 STARLINK-3558,1 52119U 22029AH  22220.16667824 -.00022067  00000-0 -13714-2 0  9998,2 52119  53.2161 197.7827 0002489  56.9136  22.1712 15.08869981 23108,6917.7890000000025,95.436,541.376,537.932,0.0
52119.0,STARLINK-3558,PAYLOAD,2022-08-08 14:00:01,15.08895744,0.0002420999999999,53.2161,195.9118,56.3271,127.3444,-0.0044818,-0.00071025,0.0,0 STARLINK-3558,1 52119U 22029AH  22220.58335648 -.00071025  00000-0 -44818-2 0  9997,2 52119  53.2161 195.9118 0002421  56.3271 127.3444 15.08895744  1305,6917.71,95.434,541.25,537.9,0.0
52119.0,STARLINK-3558,PAYLOAD,2022-08-08 22:00:00,15.08845824,0.0002298,53.2165,194.4144,60.6351,134.6066,0.0015345,0.00024222,0.0,0 STARLINK-3558,1 52119U 22029AH  22220.91667824  .00024222  00000-0  15345-2 0  9996,2 52119  53.2165 194.4144 0002298  60.6351 134.6066 15.08845824 23210,6917.863,95.437,541.317,538.138,0.0
52119.0,STARLINK-3558,PAYLOAD,2022-08-09 12:00:00,15.08839999,0.0002328,53.2162,191.7971,53.6701,71.8769,-0.00053669,-8.82e-05,0.0,0 STARLINK-3558,1 52119U 22029AH  22221.50001157 -.00008820  00000-0 -53669-3 0  9993,2 52119  53.2162 191.7971 0002328  53.6701  71.8769 15.08839999 23308,6917.88,95.438,541.356,538.135,0.0
52119.0,STARLINK-3558,PAYLOAD,2022-08-09 14:00:01,15.08849952,0.000226,53.2163,191.4225,55.6385,162.8035,-0.001983,-0.00031719,0.0,0 STARLINK-3558,1 52119U 22029AH  22221.58334491 -.00031719  00000-0 -19830-2 0  9995,2 52119  53.2163 191.4225 0002260  55.6385 162.8035 15.08849952  1306,6917.85,95.437,541.278,538.1519999999998,0.0
52119.0,STARLINK-3558,PAYLOAD,2022-08-09 22:00:00,15.08842022,0.0002154999999999,53.2166,189.9254,60.5231,169.5098,-0.0014544,-0.00023362,0.0,0 STARLINK-3558,1 52119U 22029AH  22221.91667824 -.00023362  00000-0 -14544-2 0  9993,2 52119  53.2166 189.9254 0002155  60.5231 169.5098 15.08842022  1305,6917.874,95.437,541.23,538.248,0.0
52119.0,STARLINK-3558,PAYLOAD,2022-08-10 14:00:01,15.08838294,0.0002168,53.2164,186.9334,56.4387,196.7478,-0.0019187999999999,-0.00030696,0.0,0 STARLINK-3558,1 52119U 22029AH  22222.58334491 -.00030696  00000-0 -19188-2 0  9995,2 52119  53.2164 186.9334 0002168  56.4387 196.7478 15.08838294 23460,6917.886,95.438,541.25,538.251,0.0
52119.0,STARLINK-3558,PAYLOAD,2022-08-10 22:00:00,15.08828441,0.0002130999999999,53.2167,185.4366,61.9685,202.7923,0.00075602,0.00011761,0.0,0 STARLINK-3558,1 52119U 22029AH  22222.91667824  .00011761  00000-0  75602-3 0  9995,2 52119  53.2167 185.4366 0002131  61.9685 202.7923 15.08828441  1309,6917.916,95.438,541.255,538.307,0.0
52119.0,STARLINK-3558,PAYLOAD,2022-08-11 04:00:00,15.08833477,0.0002254999999999,53.2165,184.3158,57.5263,125.9255,-0.00067592,-0.00011028,0.0,0 STARLINK-3558,1 52119U 22029AH  22223.16667824 -.00011028  00000-0 -67592-3 0  9990,2 52119  53.2165 184.3158 0002255  57.5263 125.9255 15.08833477 23554,6917.9,95.438,541.325,538.205,0.0
52119.0,STARLINK-3558,PAYLOAD,2022-08-11 14:00:01,15.08849252,0.0002191999999999,53.2165,182.4445,59.0593,228.8703,-0.0016975999999999,-0.00027212,0.0,0 STARLINK-3558,1 52119U 22029AH  22223.58334491 -.00027212  00000-0 -16976-2 0  9998,2 52119  53.2165 182.4445 0002192  59.0593 228.8703 15.08849252  1303,6917.852,95.437,541.234,538.201,0.0
52119.0,STARLINK-3558,PAYLOAD,2022-08-11 20:00:01,15.08827714,0.0002153,53.2165,181.3216,63.5159,143.1117,0.0021153,0.00033527,0.0,0 STARLINK-3558,1 52119U 22029AH  22223.83334491  .00033527  00000-0  21153-2 0  9993,2 52119  53.2165 181.3216 0002153  63.5159 143.1117 15.08827714 23651,6917.918000000002,95.438,541.2719999999998,538.294,0.0
52119.0,STARLINK-3558,PAYLOAD,2022-08-12 14:00:01,15.08871756,0.0002203,53.2166,177.9556,60.8849,261.8498,-0.0017741,-0.00028438,0.0,0 STARLINK-3558,1 52119U 22029AH  22224.58334491 -.00028438  00000-0 -17741-2 0  9991,2 52119  53.2166 177.9556 0002203  60.8849 261.8498 15.08871756 23770,6917.783,95.436,541.172,538.124,0.0
52119.0,STARLINK-3558,PAYLOAD,2022-08-12 22:00:01,15.0886049,0.0002153,53.2169,176.4588,64.3383,270.0747,-0.0015478,-0.00024852,0.0,0 STARLINK-3558,1 52119U 22029AH  22224.91668981 -.00024852  00000-0 -15478-2 0  9993,2 52119  53.2169 176.4588 0002153  64.3383 270.0747 15.08860490  1305,6917.818,95.436,541.172,538.193,0.0
52119.0,STARLINK-3558,PAYLOAD,2022-08-13 14:00:01,15.08824444,0.0002093,53.217,173.4665,59.2669,298.276,-0.00083558,-0.00013557,0.0,0 STARLINK-3558,1 52119U 22029AH  22225.58334491 -.00013557  00000-0 -83558-3 0  9998,2 52119  53.2170 173.4665 0002093  59.2669 298.2760 15.08824444  1309,6917.928000000001,95.439,541.241,538.345,0.0
52119.0,STARLINK-3558,PAYLOAD,2022-08-13 22:00:00,15.08834996,0.0002121,53.2172,171.9701,62.9155,306.1931,-0.00018714,-3.265e-05,0.0,0 STARLINK-3558,1 52119U 22029AH  22225.91667824 -.00003265  00000-0 -18714-3 0  9991,2 52119  53.2172 171.9701 0002121  62.9155 306.1931 15.08834996  1300,6917.896,95.438,541.2280000000002,538.293,0.0
52119.0,STARLINK-3558,PAYLOAD,2022-08-14 14:00:01,15.08844472,0.0002159,53.2174,168.9776,60.7891,331.5027,-0.0001103,-2.044e-05,0.0,0 STARLINK-3558,1 52119U 22029AH  22226.58334491 -.00002044  00000-0 -11030-3 0  9994,2 52119  53.2174 168.9776 0002159  60.7891 331.5027 15.08844472  1302,6917.8669999999975,95.437,541.225,538.238,0.0
52119.0,STARLINK-3558,PAYLOAD,2022-08-14 22:00:00,15.08875435,0.0002163,53.2176,167.4813,62.8341,341.05,-0.0029935,-0.00047662,0.0,0 STARLINK-3558,1 52119U 22029AH  22226.91667824 -.00047662  00000-0 -29935-2 0  9997,2 52119  53.2176 167.4813 0002163  62.8341 341.0500 15.08875435  1303,6917.772,95.435,541.133,538.141,0.0
52119.0,STARLINK-3558,PAYLOAD,2022-08-15 14:00:01,15.08839983,0.0002101,53.2178,164.4886,60.6765,6.4105,-0.00057584,-9.441e-05,0.0,0 STARLINK-3558,1 52119U 22029AH  22227.58334491 -.00009441  00000-0 -57584-3 0  9997,2 52119  53.2178 164.4886 0002101  60.6765   6.4105 15.08839983 24227,6917.88,95.438,541.1990000000002,538.2919999999998,0.0
52119.0,STARLINK-3558,PAYLOAD,2022-08-15 22:00:00,15.088479,0.0002096,53.2178,162.9924,62.2357,16.4412,-0.0022232,-0.00035505,0.0,0 STARLINK-3558,1 52119U 22029AH  22227.91667824 -.00035505  00000-0 -22232-2 0  9994,2 52119  53.2178 162.9924 0002096  62.2357  16.4412 15.08847900  1305,6917.856,95.437,541.1709999999998,538.271,0.0
52119.0,STARLINK-3558,PAYLOAD,2022-08-16 14:00:01,15.08826121,0.0002044999999999,53.2178,159.9996,61.6421,40.2078,0.0008631,0.0001347,0.0,0 STARLINK-3558,1 52119U 22029AH  22228.58334491  .00013470  00000-0  86310-3 0  9992,2 52119  53.2178 159.9996 0002045  61.6421  40.2078 15.08826121  1304,6917.9230000000025,95.438,541.203,538.373,0.0
52119.0,STARLINK-3558,PAYLOAD,2022-08-16 22:00:00,15.08862601,0.0002076,53.2178,158.5036,62.9109,50.5186,-0.0021229,-0.00033937,0.0,0 STARLINK-3558,1 52119U 22029AH  22228.91667824 -.00033937  00000-0 -21229-2 0  9997,2 52119  53.2178 158.5036 0002076  62.9109  50.5186 15.08862601  1302,6917.811,95.436,541.112,538.24,0.0
52119.0,STARLINK-3558,PAYLOAD,2022-08-17 16:00:00,15.08809302,0.0001938,53.2173,155.1362,63.4448,166.0803,0.0030705,0.00048877,0.0,0 STARLINK-3558,1 52119U 22029AH  22229.66667824  .00048877  00000-0  30705-2 0  9996,2 52119  53.2173 155.1362 0001938  63.4448 166.0803 15.08809302  1308,6917.974,95.439,541.18,538.499,0.0
52119.0,STARLINK-3558,PAYLOAD,2022-08-18 08:00:01,15.08861583,0.0002020999999999,53.2168,152.1452,59.313,193.3914,-0.00091123,-0.0001476999999999,0.0,0 STARLINK-3558,1 52119U 22029AH  22230.33334491 -.00014770  00000-0 -91123-3 0  9992,2 52119  53.2168 152.1452 0002021  59.3130 193.3914 15.08861583 24631,6917.814,95.436,541.078,538.281,0.0
52119.0,STARLINK-3558,PAYLOAD,2022-08-18 14:00:01,15.08839095,0.0001849,53.2169,151.0216,64.4401,106.9841,4.5636e-05,4.38e-06,0.0,0 STARLINK-3558,1 52119U 22029AH  22230.58334491  .00000438  00000-0  45636-4 0  9992,2 52119  53.2169 151.0216 0001849  64.4401 106.9841 15.08839095  1304,6917.8830000000025,95.438,541.0269999999998,538.469,0.0
52119.0,STARLINK-3558,PAYLOAD,2022-08-18 22:00:00,15.08861267,0.0001876999999999,53.217,149.5259,64.4532,118.575,-0.00098398,-0.00015923,0.0,0 STARLINK-3558,1 52119U 22029AH  22230.91667824 -.00015923  00000-0 -98398-3 0  9997,2 52119  53.2170 149.5259 0001877  64.4532 118.5750 15.08861267  1305,6917.815,95.436,540.979,538.382,0.0
